SBSS (USA 216)          
1 37168U 10048A   26068.88624904  .00004946  00000+0  24191-3 0  9993
2 37168  97.7474 312.3885 0082264 184.8326 306.5835 15.15724210837421
STARLINK-32288          
1 60943U 24155V   26068.46817730  .00000000  00000+0  12142-4 0  9990
2 60943  53.1616 130.9289 0001179  89.7902 270.3234 15.30190541 86252
