[{"OBJECT_NAME":"SBSS (USA 216)","OBJECT_ID":"2010-048A","EPOCH":"2026-03-09T21:16:11.917056","MEAN_MOTION":15.1572421,"ECCENTRICITY":0.0082264,"INCLINATION":97.7474,"RA_OF_ASC_NODE":312.3885,"ARG_OF_PERICENTER":184.8326,"MEAN_ANOMALY":306.5835,"EPHEMERIS_TYPE":0,"CLASSIFICATION_TYPE":"U","NORAD_CAT_ID":37168,"ELEMENT_SET_NO":999,"REV_AT_EPOCH":83742,"BSTAR":0.00024191,"MEAN_MOTION_DOT":4.946e-5,"MEAN_MOTION_DDOT":0},{"OBJECT_NAME":"STARLINK-32288","OBJECT_ID":"2024-155V","EPOCH":"2026-03-09T11:14:10.518720","MEAN_MOTION":15.30190541,"ECCENTRICITY":0.00011797,"INCLINATION":53.1616,"RA_OF_ASC_NODE":130.9289,"ARG_OF_PERICENTER":89.7902,"MEAN_ANOMALY":270.3234,"EPHEMERIS_TYPE":0,"CLASSIFICATION_TYPE":"U","NORAD_CAT_ID":60943,"ELEMENT_SET_NO":999,"REV_AT_EPOCH":8625,"BSTAR":1.2141743e-5,"MEAN_MOTION_DOT":0,"MEAN_MOTION_DDOT":0}]
